HODOYOSHI-4             
1 40011U 14033B   26180.54062623  .00001656  00000+0  18471-3 0  9993
2 40011  97.5450   4.7668 0021939 264.7250  95.1464 14.88156696650643
DEIMOS-2                
1 40013U 14033D   26180.57586341  .00000780  00000+0  78747-4 0  9996
2 40013  97.5817  54.6290 0000882  55.2324 304.8980 14.93754913639570
HODOYOSHI-3             
1 40015U 14033F   26180.44511972  .00001034  00000+0  12516-3 0  9996
2 40015  97.6428 342.9930 0031731 316.1106  43.7589 14.85412311649444
SPOT 7                  
1 40053U 14034A   26180.50956237  .00000679  00000+0  14776-3 0  9997
2 40053  98.0630 242.6837 0001396  95.5327 264.6033 14.60969540638939
SKYSAT-B                
1 40072U 14037D   26180.43062978  .00001356  00000+0  15424-3 0  9997
2 40072  98.3844 140.0939 0004389 229.6706 130.4126 14.88057739647784
WORLDVIEW-3 (WV-3)      
1 40115U 14048A   26180.49789044  .00000832  00000+0  10368-3 0  9993
2 40115  97.8565 255.1607 0000053 123.0427 237.0793 14.85041324643732
GAOFEN-2                
1 40118U 14049A   26180.54118552  .00001143  00000+0  15479-3 0  9997
2 40118  98.0112 244.7365 0006986 182.1971 177.9212 14.80912997641062
YAOGAN-21               
1 40143U 14053A   26180.55222391  .00010124  00000+0  38918-3 0  9990
2 40143  97.1469 220.2576 0009517  57.6338 302.5821 15.26557438656844
YAOGAN-22               
1 40275U 14063A   26180.42990766 -.00000045  00000+0  40526-5 0  9993
2 40275 100.7739 331.9072 0006606 158.4480 201.6910 13.15531378561424
ASNARO                  
1 40298U 14070A   26180.47371748  .00011111  00000+0  52411-3 0  9993
2 40298  97.3459 256.2562 0006542 129.7273 230.4540 15.19617582645871
YAOGAN-24               
1 40310U 14072A   26180.55421372  .00001010  00000+0  15386-3 0  9995
2 40310  98.1500 317.9967 0013438 221.1499 138.8698 14.76101260625545
CBERS 4                 
1 40336U 14079A   26180.51384666  .00000210  00000+0  87667-4 0  9993
2 40336  98.3533 236.9587 0001449  54.0034 306.1286 14.35512675605728
YAOGAN-26               
1 40362U 14088A   26180.54820775  .00019601  00000+0  37829-3 0  9999
2 40362  97.0634 180.4709 0004428  37.2473 322.9085 15.47841964639612
SMAP                    
1 40376U 15003A   26180.52434691  .00000444  00000+0  94924-4 0  9993
2 40376  98.1276 187.4441 0001443  97.4905 262.6461 14.63377106609426
KOMPSAT-3A              
1 40536U 15014A   26180.53867149  .00025825  00000+0  36456-3 0  9997
2 40536  97.6883 172.8086 0057155 130.5723 230.0526 15.54598775623732
SENTINEL-2A             
1 40697U 15028A   26180.52238845  .00000436  00000+0  18295-3 0  9996
2 40697  98.5689 255.1991 0001206  93.7266 266.4055 14.30819756575499
GAOFEN-8                
1 40701U 15030A   26180.51371457  .00017207  00000+0  34909-3 0  9995
2 40701  97.6898  14.6269 0009687 144.7051 215.4840 15.46393040613358
CARBONITE 1 (CBNT-1)    
1 40718U 15032D   26180.52492808  .00002032  00000+0  25212-3 0  9997
2 40718  97.6506 358.0747 0012932 252.8502 107.1297 14.83625151591176
YAOGAN-27               
1 40878U 15040A   26180.49597539 -.00000182  00000+0 -36707-3 0  9993
2 40878 100.1149 166.3445 0008022 180.8370 179.2732 13.16069508519288
GAOFEN-9 01             
1 40894U 15047A   26180.54587691  .00001077  00000+0  13813-3 0  9997
2 40894  97.6269 215.6789 0028871  99.1949 261.2533 14.82907420582027
YAOGAN-28               
1 41026U 15064A   26180.50744559  .00006289  00000+0  23552-3 0  9999
2 41026  97.3088 318.5194 0011619 142.0722 218.1338 15.27572390592561
YAOGAN-29               
1 41038U 15069A   26180.52443131  .00000857  00000+0  11182-3 0  9992
2 41038  98.0025 209.1765 0002000  35.6125 324.5221 14.83097393572455
KENT RIDGE 1            
1 41167U 15077B   26179.62322370  .00003765  00000+0  12310-3 0  9999
2 41167  14.9780 180.9327 0008176  40.1144 319.9781 15.23196172582848
JASON-3                 
1 41240U 16002A   26180.50760417 -.00000054  00000+0  33047-4 0  9997
2 41240  66.0416  99.9339 0008362 272.1441  87.8620 12.87623158488833
SENTINEL-3A             
1 41335U 16011A   26180.48929882  .00000105  00000+0  61332-4 0  9996
2 41335  98.6246 247.6961 0001427  96.0574 264.0769 14.26735908539818
ZIYUAN 3-02 (ZY 3-02)   
1 41556U 16033A   26180.55582654  .00005274  00000+0  23841-3 0  9999
2 41556  97.3838 256.0920 0012645 242.6582 117.3367 15.21294159559862
CARTOSAT-2C             
1 41599U 16040A   26180.50893830  .00006516  00000+0  31157-3 0  9999
2 41599  97.4483 240.3176 0010406  94.4897 265.7526 15.19289420555582
SKYSAT-C1               
1 41601U 16040C   26180.52591605  .00008393  00000+0  23768-3 0  9994
2 41601  96.9557 211.5778 0002189  32.0331 328.1047 15.36505011559762
LAPAN-A3                
1 41603U 16040E   26180.52679572  .00003274  00000+0  10437-3 0  9998
2 41603  97.1488 176.2675 0009348 341.9273  18.1636 15.33183208556702
GAOFEN-3                
1 41727U 16049A   26180.50263718  .00000128  00000+0  51934-4 0  9996
2 41727  98.4007 188.1026 0001628  95.7667 264.3708 14.42217411520424
