OBJECT_NAME,OBJECT_ID,EPOCH,MEAN_MOTION,ECCENTRICITY,INCLINATION,RA_OF_ASC_NODE,ARG_OF_PERICENTER,MEAN_ANOMALY,EPHEMERIS_TYPE,CLASSIFICATION_TYPE,NORAD_CAT_ID,ELEMENT_SET_NO,REV_AT_EPOCH,BSTAR,MEAN_MOTION_DOT,MEAN_MOTION_DDOT
HODOYOSHI-4,2014-033B,2026-06-29T12:58:30.106272,14.88156696,.0021939,97.5450,4.7668,264.7250,95.1464,0,U,40011,999,65064,.18471E-3,.1656E-4,0
DEIMOS-2,2014-033D,2026-06-29T13:49:14.598624,14.93754913,.0000882,97.5817,54.6290,55.2324,304.8980,0,U,40013,999,63957,.78747E-4,.78E-5,0
HODOYOSHI-3,2014-033F,2026-06-29T10:40:58.343808,14.85412311,.0031731,97.6428,342.9930,316.1106,43.7589,0,U,40015,999,64944,.12516E-3,.1034E-4,0
SPOT 7,2014-034A,2026-06-29T12:13:46.188768,14.60969540,.0001396,98.0630,242.6837,95.5327,264.6033,0,U,40053,999,63893,.14776E-3,.679E-5,0
SKYSAT-B,2014-037D,2026-06-29T10:20:06.412992,14.88057739,.0004389,98.3844,140.0939,229.6706,130.4126,0,U,40072,999,64778,.15424E-3,.1356E-4,0
WORLDVIEW-3 (WV-3),2014-048A,2026-06-29T11:56:57.734016,14.85041324,.0000053,97.8565,255.1607,123.0427,237.0793,0,U,40115,999,64373,.10368E-3,.832E-5,0
GAOFEN-2,2014-049A,2026-06-29T12:59:18.428928,14.80912997,.0006986,98.0112,244.7365,182.1971,177.9212,0,U,40118,999,64106,.15479E-3,.1143E-4,0
YAOGAN-21,2014-053A,2026-06-29T13:15:12.145824,15.26557438,.0009517,97.1469,220.2576,57.6338,302.5821,0,U,40143,999,65684,.38918E-3,.10124E-3,0
YAOGAN-22,2014-063A,2026-06-29T10:19:04.021824,13.15531378,.0006606,100.7739,331.9072,158.4480,201.6910,0,U,40275,999,56142,.40526E-5,-.45E-6,0
ASNARO,2014-070A,2026-06-29T11:22:09.190272,15.19617582,.0006542,97.3459,256.2562,129.7273,230.4540,0,U,40298,999,64587,.52411E-3,.11111E-3,0
YAOGAN-24,2014-072A,2026-06-29T13:18:04.065408,14.76101260,.0013438,98.1500,317.9967,221.1499,138.8698,0,U,40310,999,62554,.15386E-3,.101E-4,0
CBERS 4,2014-079A,2026-06-29T12:19:56.351424,14.35512675,.0001449,98.3533,236.9587,54.0034,306.1286,0,U,40336,999,60572,.87667E-4,.21E-5,0
YAOGAN-26,2014-088A,2026-06-29T13:09:25.149600,15.47841964,.0004428,97.0634,180.4709,37.2473,322.9085,0,U,40362,999,63961,.37829E-3,.19601E-3,0
SMAP,2015-003A,2026-06-29T12:35:03.573024,14.63377106,.0001443,98.1276,187.4441,97.4905,262.6461,0,U,40376,999,60942,.94924E-4,.444E-5,0
KOMPSAT-3A,2015-014A,2026-06-29T12:55:41.216736,15.54598775,.0057155,97.6883,172.8086,130.5723,230.0526,0,U,40536,999,62373,.36456E-3,.25825E-3,0
SENTINEL-2A,2015-028A,2026-06-29T12:32:14.362080,14.30819756,.0001206,98.5689,255.1991,93.7266,266.4055,0,U,40697,999,57549,.18295E-3,.436E-5,0
GAOFEN-8,2015-030A,2026-06-29T12:19:44.938848,15.46393040,.0009687,97.6898,14.6269,144.7051,215.4840,0,U,40701,999,61335,.34909E-3,.17207E-3,0
CARBONITE 1 (CBNT-1),2015-032D,2026-06-29T12:35:53.786112,14.83625151,.0012932,97.6506,358.0747,252.8502,107.1297,0,U,40718,999,59117,.25212E-3,.2032E-4,0
YAOGAN-27,2015-040A,2026-06-29T11:54:12.273696,13.16069508,.0008022,100.1149,166.3445,180.8370,179.2732,0,U,40878,999,51928,-.36707E-3,-.182E-5,0
GAOFEN-9 01,2015-047A,2026-06-29T13:06:03.765024,14.82907420,.0028871,97.6269,215.6789,99.1949,261.2533,0,U,40894,999,58202,.13813E-3,.1077E-4,0
YAOGAN-28,2015-064A,2026-06-29T12:10:43.298976,15.27572390,.0011619,97.3088,318.5194,142.0722,218.1338,0,U,41026,999,59256,.23552E-3,.6289E-4,0
YAOGAN-29,2015-069A,2026-06-29T12:35:10.865184,14.83097393,.0002,98.0025,209.1765,35.6125,324.5221,0,U,41038,999,57245,.11182E-3,.857E-5,0
KENT RIDGE 1,2015-077B,2026-06-28T14:57:26.527680,15.23196172,.00081764,14.9780,180.9327,40.1144,319.9781,0,U,41167,999,58284,.12310094E-3,.3765E-4,0
JASON-3,2016-002A,2026-06-29T12:10:57.000288,12.87623158,.0008362,66.0416,99.9339,272.1441,87.8620,0,U,41240,999,48883,.33047E-4,-.54E-6,0
SENTINEL-3A,2016-011A,2026-06-29T11:44:35.418048,14.26735908,.0001427,98.6246,247.6961,96.0574,264.0769,0,U,41335,999,53981,.61332E-4,.105E-5,0
ZIYUAN 3-02 (ZY 3-02),2016-033A,2026-06-29T13:20:23.413056,15.21294159,.0012645,97.3838,256.0920,242.6582,117.3367,0,U,41556,999,55986,.23841E-3,.5274E-4,0
CARTOSAT-2C,2016-040A,2026-06-29T12:12:52.269120,15.19289420,.0010406,97.4483,240.3176,94.4897,265.7526,0,U,41599,999,55558,.31157E-3,.6516E-4,0
SKYSAT-C1,2016-040C,2026-06-29T12:37:19.146720,15.36505011,.0002189,96.9557,211.5778,32.0331,328.1047,0,U,41601,999,55976,.23768E-3,.8393E-4,0
LAPAN-A3,2016-040E,2026-06-29T12:38:35.150208,15.33183208,.0009348,97.1488,176.2675,341.9273,18.1636,0,U,41603,999,55670,.10437E-3,.3274E-4,0
GAOFEN-3,2016-049A,2026-06-29T12:03:47.852352,14.42217411,.0001628,98.4007,188.1026,95.7667,264.3708,0,U,41727,999,52042,.51934E-4,.128E-5,0
